{"type":"FeatureCollection","attribution":"BGT © Kadaster / Gemeente Amsterdam, CC0 1.0","sourceUrl":"https://api.pdok.nl/lv/bgt/ogc/v1/collections/wegdeel/items?bbox=4.8841,52.3740,4.8854,52.3749&limit=1000&f=json","retrievedAt":"2026-10-08","simplificationToleranceM":0.08,"features":[{"type":"Feature","id":"bgt-homomonument-quay","geometry":{"type":"Polygon","coordinates":[[[4.884934498170001,52.374502268201645],[4.884920223418218,52.37453026767629],[4.884910789017593,52.374533939529606],[4.88489986256001,52.374532489397275],[4.884895987336776,52.37453008358154],[4.884818564384098,52.37444412559712],[4.884807176370004,52.37442613892312],[4.884803580278658,52.374412869281365],[4.884775254082932,52.37415271954047],[4.88477615022166,52.37414310622941],[4.884781080100857,52.37413179100938],[4.884862504354104,52.37412822682159],[4.884852746782119,52.3741337298104],[4.8848457100800236,52.37414021389479],[4.88484133179714,52.37414752214642],[4.884839855600114,52.37415559253966],[4.884842831285619,52.37419911931143],[4.8848674935016705,52.374429372248606],[4.884934498170001,52.374502268201645]],[[4.88488594767717,52.374460925498916],[4.884876074484057,52.374462653554644],[4.88487078535988,52.374468528266306],[4.884874150186888,52.37447491184521],[4.884883186759051,52.37447775198418],[4.884892953676085,52.37447604252941],[4.884898284076172,52.37447018180851],[4.884895512024757,52.374464200481526],[4.88488594767717,52.374460925498916]]]},"properties":{"role":"paved-area","park":"Westermarkt","surface":"open verharding","sourceBgtId":"G0363.eb965d61629d424c934f94b634ebf74f","sourceBgtVersion":"2f53e193-ec43-14db-f1e0-3ce80535a1ce"}}]}