{
  "type": "FeatureCollection",
  "crs": {
    "type": "name",
    "properties": {
      "name": "urn:ogc:def:crs:OGC::CRS84"
    }
  },
  "features": [
    {
      "type": "Feature",
      "id": "buurten.03630980000026.1",
      "geometry": {
        "type": "Polygon",
        "coordinates": [
          [
            [
              4.883061216378882,
              52.383518608701046
            ],
            [
              4.888064388957565,
              52.3807261859022
            ],
            [
              4.880361172119313,
              52.37958000699932
            ],
            [
              4.882959117228857,
              52.38365058073888
            ],
            [
              4.883061216378882,
              52.383518608701046
            ]
          ]
        ]
      },
      "properties": {
        "volgnummer": 1,
        "registratiedatum": "2024-01-25T20:36:51",
        "identificatie": "03630980000026",
        "naam": "Driehoekbuurt",
        "code": "AB02",
        "beginGeldigheid": "2022-03-24T00:00:00",
        "eindGeldigheid": null,
        "documentdatum": "2022-02-16",
        "documentnummer": "VN2022-001699",
        "cbsCode": "BU0363AB02",
        "ligtInWijkId": "03630970000009",
        "ligtInGgpgebiedId": null,
        "ligtInGgwgebiedId": "03630950000022"
      }
    },
    {
      "type": "Feature",
      "id": "buurten.03630980000027.1",
      "geometry": {
        "type": "Polygon",
        "coordinates": [
          [
            [
              4.888160055239791,
              52.380215072266836
            ],
            [
              4.887122916678869,
              52.37909416410019
            ],
            [
              4.879353030162467,
              52.37766780444902
            ],
            [
              4.879177344952168,
              52.37770457452849
            ],
            [
              4.880361172119313,
              52.37958000699932
            ],
            [
              4.888064388957565,
              52.3807261859022
            ],
            [
              4.888430726182581,
              52.38052016755573
            ],
            [
              4.888160055239791,
              52.380215072266836
            ]
          ]
        ]
      },
      "properties": {
        "volgnummer": 1,
        "registratiedatum": "2024-01-25T20:36:51",
        "identificatie": "03630980000027",
        "naam": "Anjeliersbuurt-Noord",
        "code": "AB03",
        "beginGeldigheid": "2022-03-24T00:00:00",
        "eindGeldigheid": null,
        "documentdatum": "2022-02-16",
        "documentnummer": "VN2022-001699",
        "cbsCode": "BU0363AB03",
        "ligtInWijkId": "03630970000009",
        "ligtInGgpgebiedId": null,
        "ligtInGgwgebiedId": "03630950000022"
      }
    },
    {
      "type": "Feature",
      "id": "buurten.03630980000029.1",
      "geometry": {
        "type": "Polygon",
        "coordinates": [
          [
            [
              4.884773773039359,
              52.37652841378139
            ],
            [
              4.884465905885644,
              52.37660317005161
            ],
            [
              4.88426606995348,
              52.37659730631212
            ],
            [
              4.877790483486188,
              52.37519660843996
            ],
            [
              4.877597591739214,
              52.37520431676595
            ],
            [
              4.879177344952168,
              52.37770457452849
            ],
            [
              4.879353030162467,
              52.37766780444902
            ],
            [
              4.887122916678869,
              52.37909416410019
            ],
            [
              4.886200703409424,
              52.378087876557366
            ],
            [
              4.884773773039359,
              52.37652841378139
            ]
          ]
        ]
      },
      "properties": {
        "volgnummer": 1,
        "registratiedatum": "2024-01-25T20:36:51",
        "identificatie": "03630980000029",
        "naam": "Anjeliersbuurt-Zuid",
        "code": "AB05",
        "beginGeldigheid": "2022-03-24T00:00:00",
        "eindGeldigheid": null,
        "documentdatum": "2022-02-16",
        "documentnummer": "VN2022-001699",
        "cbsCode": "BU0363AB05",
        "ligtInWijkId": "03630970000009",
        "ligtInGgpgebiedId": null,
        "ligtInGgwgebiedId": "03630950000022"
      }
    },
    {
      "type": "Feature",
      "id": "buurten.03630980000031.1",
      "geometry": {
        "type": "Polygon",
        "coordinates": [
          [
            [
              4.88314976742786,
              52.3747503040478
            ],
            [
              4.883128037848024,
              52.37467755488985
            ],
            [
              4.883063086925262,
              52.37399010489524
            ],
            [
              4.876308461321958,
              52.37231255409279
            ],
            [
              4.876361577280313,
              52.37247552390212
            ],
            [
              4.876677494967888,
              52.37329097601554
            ],
            [
              4.87677917829077,
              52.373615790095776
            ],
            [
              4.87685059535279,
              52.37377871269509
            ],
            [
              4.876919356495172,
              52.37390193404374
            ],
            [
              4.876921514221313,
              52.37395945573857
            ],
            [
              4.876935436282833,
              52.374034697980555
            ],
            [
              4.877027041178948,
              52.37427978327057
            ],
            [
              4.877068188626532,
              52.37436148811936
            ],
            [
              4.877597591739214,
              52.37520431676595
            ],
            [
              4.877790483486188,
              52.37519660843996
            ],
            [
              4.88426606995348,
              52.37659730631212
            ],
            [
              4.884465905885644,
              52.37660317005161
            ],
            [
              4.884773773039359,
              52.37652841378139
            ],
            [
              4.88314976742786,
              52.3747503040478
            ]
          ]
        ]
      },
      "properties": {
        "volgnummer": 1,
        "registratiedatum": "2024-01-25T20:36:51",
        "identificatie": "03630980000031",
        "naam": "Bloemgrachtbuurt",
        "code": "AB07",
        "beginGeldigheid": "2022-03-24T00:00:00",
        "eindGeldigheid": null,
        "documentdatum": "2022-02-16",
        "documentnummer": "VN2022-001699",
        "cbsCode": "BU0363AB07",
        "ligtInWijkId": "03630970000009",
        "ligtInGgpgebiedId": null,
        "ligtInGgwgebiedId": "03630950000022"
      }
    },
    {
      "type": "Feature",
      "id": "buurten.03630980000034.1",
      "geometry": {
        "type": "Polygon",
        "coordinates": [
          [
            [
              4.88260888451093,
              52.36892990988176
            ],
            [
              4.882597608493749,
              52.36875429566296
            ],
            [
              4.882274831401655,
              52.36876567314007
            ],
            [
              4.882203272955267,
              52.36876245592255
            ],
            [
              4.879069917512346,
              52.36774328739
            ],
            [
              4.878290242573494,
              52.3688506237464
            ],
            [
              4.876201288489572,
              52.371841503577635
            ],
            [
              4.876173334224242,
              52.371901025442426
            ],
            [
              4.876308461321958,
              52.37231255409279
            ],
            [
              4.883063086925262,
              52.37399010489524
            ],
            [
              4.88260888451093,
              52.36892990988176
            ]
          ]
        ]
      },
      "properties": {
        "volgnummer": 1,
        "registratiedatum": "2024-01-25T20:36:51",
        "identificatie": "03630980000034",
        "naam": "Elandsgrachtbuurt",
        "code": "AB10",
        "beginGeldigheid": "2022-03-24T00:00:00",
        "eindGeldigheid": null,
        "documentdatum": "2022-02-16",
        "documentnummer": "VN2022-001699",
        "cbsCode": "BU0363AB10",
        "ligtInWijkId": "03630970000009",
        "ligtInGgpgebiedId": null,
        "ligtInGgwgebiedId": "03630950000022"
      }
    },
    {
      "type": "Feature",
      "id": "buurten.03630980000035.1",
      "geometry": {
        "type": "Polygon",
        "coordinates": [
          [
            [
              4.882419110959889,
              52.366742091115135
            ],
            [
              4.882427392899451,
              52.36666328609332
            ],
            [
              4.882543074810459,
              52.36657691287806
            ],
            [
              4.882736502484305,
              52.36624366342979
            ],
            [
              4.882792763939564,
              52.36617532678928
            ],
            [
              4.880907781876498,
              52.365491736213876
            ],
            [
              4.880861518216756,
              52.36553680056416
            ],
            [
              4.880485521997686,
              52.366058933811246
            ],
            [
              4.880241861290035,
              52.366343637540155
            ],
            [
              4.880018536027039,
              52.366644740602524
            ],
            [
              4.879884019797035,
              52.3666084021052
            ],
            [
              4.879069917512346,
              52.36774328739
            ],
            [
              4.882203272955267,
              52.36876245592255
            ],
            [
              4.882274831401655,
              52.36876567314007
            ],
            [
              4.882597608493749,
              52.36875429566296
            ],
            [
              4.882419110959889,
              52.366742091115135
            ]
          ]
        ]
      },
      "properties": {
        "volgnummer": 1,
        "registratiedatum": "2024-01-25T20:36:51",
        "identificatie": "03630980000035",
        "naam": "Passeerdersgrachtbuurt",
        "code": "AB11",
        "beginGeldigheid": "2022-03-24T00:00:00",
        "eindGeldigheid": null,
        "documentdatum": "2022-02-16",
        "documentnummer": "VN2022-001699",
        "cbsCode": "BU0363AB11",
        "ligtInWijkId": "03630970000009",
        "ligtInGgpgebiedId": null,
        "ligtInGgwgebiedId": "03630950000022"
      }
    },
    {
      "type": "Feature",
      "id": "buurten.03630980000159.1",
      "geometry": {
        "type": "Polygon",
        "coordinates": [
          [
            [
              4.875039286093672,
              52.37068157859334
            ],
            [
              4.875668719474342,
              52.36963764325734
            ],
            [
              4.875800553064586,
              52.369460120994354
            ],
            [
              4.875987330970825,
              52.36925198995786
            ],
            [
              4.876297122518326,
              52.36896489307905
            ],
            [
              4.876673892222644,
              52.3686754418228
            ],
            [
              4.876803577672635,
              52.36850153121973
            ],
            [
              4.873793429776702,
              52.367712390091896
            ],
            [
              4.870803652824712,
              52.36684860870282
            ],
            [
              4.869580122101492,
              52.36860327929288
            ],
            [
              4.867399795952647,
              52.371794922274304
            ],
            [
              4.869638966788993,
              52.37224202910445
            ],
            [
              4.875481454909949,
              52.37340840552959
            ],
            [
              4.875426041157667,
              52.373233498715734
            ],
            [
              4.875378473684489,
              52.373148574873795
            ],
            [
              4.87529022344516,
              52.373033689829825
            ],
            [
              4.875229752427487,
              52.372972617467795
            ],
            [
              4.875162800546939,
              52.37292216749457
            ],
            [
              4.874825086069875,
              52.37272507986962
            ],
            [
              4.874777302026416,
              52.372688284074634
            ],
            [
              4.874639659375042,
              52.37256038624501
            ],
            [
              4.874549858214979,
              52.37244782173179
            ],
            [
              4.874477639253388,
              52.372322157285694
            ],
            [
              4.874434241802075,
              52.3721993948174
            ],
            [
              4.874446107455125,
              52.37205832999584
            ],
            [
              4.87449761473167,
              52.371887265050326
            ],
            [
              4.875039286093672,
              52.37068157859334
            ]
          ]
        ]
      },
      "properties": {
        "volgnummer": 1,
        "registratiedatum": "2024-01-25T20:36:51",
        "identificatie": "03630980000159",
        "naam": "Da Costabuurt-Noord",
        "code": "EQ01",
        "beginGeldigheid": "2022-03-24T00:00:00",
        "eindGeldigheid": null,
        "documentdatum": "2022-02-16",
        "documentnummer": "VN2022-001699",
        "cbsCode": "BU0363EQ01",
        "ligtInWijkId": "03630970000034",
        "ligtInGgpgebiedId": null,
        "ligtInGgwgebiedId": "03630950000026"
      }
    },
    {
      "type": "Feature",
      "id": "buurten.03630980000164.1",
      "geometry": {
        "type": "Polygon",
        "coordinates": [
          [
            [
              4.877082759020611,
              52.368105926302746
            ],
            [
              4.877193150201885,
              52.367896053123644
            ],
            [
              4.877259839894671,
              52.36770061464848
            ],
            [
              4.87731392234066,
              52.36729899728509
            ],
            [
              4.877343593095821,
              52.36718171837212
            ],
            [
              4.877425288934914,
              52.366951579869315
            ],
            [
              4.87751272183099,
              52.36677026038059
            ],
            [
              4.873346836725735,
              52.36554862455416
            ],
            [
              4.871978712709087,
              52.365145483562195
            ],
            [
              4.870803652824712,
              52.36684860870282
            ],
            [
              4.873793429776702,
              52.367712390091896
            ],
            [
              4.876803577672635,
              52.36850153121973
            ],
            [
              4.877082759020611,
              52.368105926302746
            ]
          ]
        ]
      },
      "properties": {
        "volgnummer": 1,
        "registratiedatum": "2024-01-25T20:36:51",
        "identificatie": "03630980000164",
        "naam": "Da Costabuurt-Zuid",
        "code": "ES03",
        "beginGeldigheid": "2022-03-24T00:00:00",
        "eindGeldigheid": null,
        "documentdatum": "2022-02-16",
        "documentnummer": "VN2022-001699",
        "cbsCode": "BU0363ES03",
        "ligtInWijkId": "03630970000036",
        "ligtInGgpgebiedId": null,
        "ligtInGgwgebiedId": "03630950000026"
      }
    }
  ]
}


