{
  "type": "FeatureCollection",
  "source": ".cache/osm-source/Amsterdam.osm.pbf",
  "reproduce": [
    "osmium tags-filter .cache/osm-source/Amsterdam.osm.pbf w/landuse=allotments r/landuse=allotments -o /tmp/amsterdam-allotments.osm.pbf --overwrite",
    "osmium export /tmp/amsterdam-allotments.osm.pbf -a type,id --geometry-types=polygon -o /tmp/amsterdam-allotment-polygons.geojson --overwrite"
  ],
  "features": [
    {
      "type": "Feature",
      "geometry": {
        "type": "MultiPolygon",
        "coordinates": [
          [
            [
              [
                4.8550614,
                52.3885817
              ],
              [
                4.8550623,
                52.3885236
              ],
              [
                4.8563187,
                52.3877941
              ],
              [
                4.8563225,
                52.3877834
              ],
              [
                4.8555709,
                52.38733
              ],
              [
                4.8554502,
                52.3873969
              ],
              [
                4.8550913,
                52.3871546
              ],
              [
                4.8552133,
                52.3870815
              ],
              [
                4.8570367,
                52.3859577
              ],
              [
                4.8570544,
                52.3859718
              ],
              [
                4.857211,
                52.3858971
              ],
              [
                4.8575509,
                52.3858832
              ],
              [
                4.8579193,
                52.3858842
              ],
              [
                4.8580089,
                52.3859229
              ],
              [
                4.8581236,
                52.3859868
              ],
              [
                4.8582547,
                52.3858949
              ],
              [
                4.8583764,
                52.3858922
              ],
              [
                4.8584528,
                52.3859024
              ],
              [
                4.8585346,
                52.3859077
              ],
              [
                4.858593,
                52.3859441
              ],
              [
                4.8586835,
                52.3858946
              ],
              [
                4.8587831,
                52.3858844
              ],
              [
                4.8588867,
                52.3858899
              ],
              [
                4.8589893,
                52.3858973
              ],
              [
                4.8591375,
                52.3859032
              ],
              [
                4.859224,
                52.3858963
              ],
              [
                4.8593272,
                52.3858782
              ],
              [
                4.8597148,
                52.3858737
              ],
              [
                4.8598563,
                52.3858754
              ],
              [
                4.8599073,
                52.3858815
              ],
              [
                4.8600608,
                52.3858791
              ],
              [
                4.8602003,
                52.3858664
              ],
              [
                4.8603196,
                52.3858627
              ],
              [
                4.86038,
                52.3858574
              ],
              [
                4.8606214,
                52.385857
              ],
              [
                4.8609808,
                52.3858836
              ],
              [
                4.8613691,
                52.3859122
              ],
              [
                4.861825,
                52.3859585
              ],
              [
                4.8622079,
                52.386001
              ],
              [
                4.8624661,
                52.3860309
              ],
              [
                4.8627752,
                52.3860853
              ],
              [
                4.8631272,
                52.3861741
              ],
              [
                4.8637851,
                52.3863297
              ],
              [
                4.8634686,
                52.3873037
              ],
              [
                4.8633313,
                52.3876944
              ],
              [
                4.8632968,
                52.3877521
              ],
              [
                4.8631856,
                52.3880076
              ],
              [
                4.863211,
                52.3880156
              ],
              [
                4.8638969,
                52.3880373
              ],
              [
                4.8644796,
                52.3880557
              ],
              [
                4.8644944,
                52.3880761
              ],
              [
                4.86443,
                52.3882488
              ],
              [
                4.8644596,
                52.3882722
              ],
              [
                4.8645039,
                52.3882732
              ],
              [
                4.8645601,
                52.3880647
              ],
              [
                4.8648257,
                52.3880729
              ],
              [
                4.864755,
                52.3886473
              ],
              [
                4.8642876,
                52.388656
              ],
              [
                4.8622992,
                52.3886079
              ],
              [
                4.8618498,
                52.3886058
              ],
              [
                4.8613993,
                52.3886059
              ],
              [
                4.8603726,
                52.388603
              ],
              [
                4.8591854,
                52.388592
              ],
              [
                4.8587984,
                52.3885878
              ],
              [
                4.85819,
                52.3885912
              ],
              [
                4.8573913,
                52.3885957
              ],
              [
                4.8571117,
                52.3885937
              ],
              [
                4.8560086,
                52.3885858
              ],
              [
                4.8556137,
                52.3885898
              ],
              [
                4.8550614,
                52.3885817
              ]
            ]
          ]
        ]
      },
      "properties": {
        "@type": "way",
        "@id": 4827637,
        "landuse": "allotments",
        "name": "Tuinpark Nut & Genoegen"
      }
    },
    {
      "type": "Feature",
      "geometry": {
        "type": "MultiPolygon",
        "coordinates": [
          [
            [
              [
                4.8474839,
                52.3880845
              ],
              [
                4.8475007,
                52.3880072
              ],
              [
                4.8475208,
                52.3878374
              ],
              [
                4.8475429,
                52.387271
              ],
              [
                4.847557,
                52.3871967
              ],
              [
                4.8475718,
                52.387151
              ],
              [
                4.8476167,
                52.3867578
              ],
              [
                4.8476388,
                52.3867226
              ],
              [
                4.8477066,
                52.3866685
              ],
              [
                4.847781,
                52.3866247
              ],
              [
                4.8479044,
                52.3866923
              ],
              [
                4.8479158,
                52.3866661
              ],
              [
                4.8478997,
                52.3866366
              ],
              [
                4.847899,
                52.3866092
              ],
              [
                4.8479198,
                52.3865826
              ],
              [
                4.847964,
                52.3865752
              ],
              [
                4.8480324,
                52.3865687
              ],
              [
                4.8486634,
                52.3865468
              ],
              [
                4.8494728,
                52.3864958
              ],
              [
                4.8496015,
                52.3864868
              ],
              [
                4.8496699,
                52.3865237
              ],
              [
                4.8497289,
                52.3864786
              ],
              [
                4.8497564,
                52.3864741
              ],
              [
                4.8497886,
                52.3864754
              ],
              [
                4.8498396,
                52.3864799
              ],
              [
                4.8498832,
                52.3864717
              ],
              [
                4.8499274,
                52.3864627
              ],
              [
                4.8500629,
                52.3864492
              ],
              [
                4.8504545,
                52.3864009
              ],
              [
                4.8513409,
                52.3863092
              ],
              [
                4.851988,
                52.3862462
              ],
              [
                4.8520417,
                52.3862797
              ],
              [
                4.8521235,
                52.3862286
              ],
              [
                4.8525634,
                52.386193
              ],
              [
                4.8529657,
                52.3861586
              ],
              [
                4.8530562,
                52.3861627
              ],
              [
                4.853126,
                52.3861602
              ],
              [
                4.8531642,
                52.386152
              ],
              [
                4.8532165,
                52.3861361
              ],
              [
                4.853472,
                52.3861177
              ],
              [
                4.8543146,
                52.3860567
              ],
              [
                4.8546803,
                52.386035
              ],
              [
                4.8553388,
                52.3859867
              ],
              [
                4.8556173,
                52.3859698
              ],
              [
                4.8559986,
                52.3859466
              ],
              [
                4.8566631,
                52.3859118
              ],
              [
                4.856924,
                52.3858983
              ],
              [
                4.856984,
                52.385911
              ],
              [
                4.8570367,
                52.3859577
              ],
              [
                4.8552133,
                52.3870815
              ],
              [
                4.8550913,
                52.3871546
              ],
              [
                4.8554502,
                52.3873969
              ],
              [
                4.8555709,
                52.38733
              ],
              [
                4.8563225,
                52.3877834
              ],
              [
                4.8563187,
                52.3877941
              ],
              [
                4.8550623,
                52.3885236
              ],
              [
                4.8550614,
                52.3885817
              ],
              [
                4.8542147,
                52.3885858
              ],
              [
                4.8534107,
                52.3885857
              ],
              [
                4.8530929,
                52.3885934
              ],
              [
                4.8528937,
                52.3885838
              ],
              [
                4.8528274,
                52.3885803
              ],
              [
                4.8527568,
                52.3885771
              ],
              [
                4.8526747,
                52.3885779
              ],
              [
                4.8526752,
                52.3885929
              ],
              [
                4.8522448,
                52.3885924
              ],
              [
                4.8520069,
                52.3885833
              ],
              [
                4.8519821,
                52.3885695
              ],
              [
                4.8519235,
                52.3885657
              ],
              [
                4.8518726,
                52.3885868
              ],
              [
                4.8516289,
                52.3885697
              ],
              [
                4.8509581,
                52.3885331
              ],
              [
                4.8505726,
                52.3885164
              ],
              [
                4.8501299,
                52.3885015
              ],
              [
                4.8496822,
                52.3884848
              ],
              [
                4.8489834,
                52.3884519
              ],
              [
                4.8482978,
                52.388423
              ],
              [
                4.8480355,
                52.3884133
              ],
              [
                4.8479012,
                52.3884056
              ],
              [
                4.8476234,
                52.3883817
              ],
              [
                4.8475678,
                52.3883526
              ],
              [
                4.8475154,
                52.3882765
              ],
              [
                4.8474987,
                52.3882229
              ],
              [
                4.8474866,
                52.3881357
              ],
              [
                4.8474839,
                52.3880845
              ]
            ]
          ]
        ]
      },
      "properties": {
        "@type": "way",
        "@id": 46349143,
        "landuse": "allotments",
        "name": "Tuingroep Sloterdijkermeer"
      }
    }
  ]
}
