{
  "type": "FeatureCollection",
  "metadata": {
    "generatedAt": "2026-08-31T13:58:46.259Z",
    "source": "OpenStreetMap relation 165334",
    "license": "ODbL 1.0",
    "relationVersion": {
      "from": "Amsterdam-Noord",
      "name": "A10",
      "network": "NL:A",
      "note": "Begin/einde/richting op basis van hectometrering. Afritnummering loopt in tegenovergestelde richting en begint/eindigt op iets andere plek.",
      "operator": "Rijkswaterstaat",
      "ref": "A10",
      "route": "road",
      "to": "Amsterdam-Noord",
      "type": "route",
      "website": "https://www.rijkswaterstaat.nl/wegen/wegenoverzicht/a10",
      "wikidata": "Q1852074",
      "wikipedia": "nl:Rijksweg 10"
    },
    "points": 479
  },
  "features": [
    {
      "type": "Feature",
      "properties": {
        "name": "Inside A10",
        "priorityTier": 1
      },
      "geometry": {
        "type": "Polygon",
        "coordinates": [
          [
            [
              4.899986,
              52.4236132
            ],
            [
              4.9008767,
              52.423351
            ],
            [
              4.9011786,
              52.4232535
            ],
            [
              4.9020478,
              52.4229764
            ],
            [
              4.9029248,
              52.4226607
            ],
            [
              4.9035328,
              52.4224183
            ],
            [
              4.9044069,
              52.4220568
            ],
            [
              4.9067055,
              52.4209839
            ],
            [
              4.9075143,
              52.4206034
            ],
            [
              4.9079105,
              52.4204165
            ],
            [
              4.9086004,
              52.4200973
            ],
            [
              4.9104964,
              52.4192503
            ],
            [
              4.9116838,
              52.418756
            ],
            [
              4.9129303,
              52.4182692
            ],
            [
              4.9134605,
              52.4180764
            ],
            [
              4.9143369,
              52.4177672
            ],
            [
              4.9160536,
              52.4171711
            ],
            [
              4.9168761,
              52.4168619
            ],
            [
              4.9176634,
              52.4165486
            ],
            [
              4.9191489,
              52.4159332
            ],
            [
              4.9205839,
              52.4153088
            ],
            [
              4.9219638,
              52.4146825
            ],
            [
              4.9241765,
              52.4136431
            ],
            [
              4.9243285,
              52.4135691
            ],
            [
              4.9253774,
              52.4130721
            ],
            [
              4.9270403,
              52.412238
            ],
            [
              4.9289516,
              52.4112647
            ],
            [
              4.9302293,
              52.4106163
            ],
            [
              4.9308658,
              52.4102845
            ],
            [
              4.9319456,
              52.4097558
            ],
            [
              4.9327629,
              52.4093755
            ],
            [
              4.9331863,
              52.4091912
            ],
            [
              4.9336231,
              52.4090105
            ],
            [
              4.9340368,
              52.4088457
            ],
            [
              4.9347781,
              52.4085675
            ],
            [
              4.9355522,
              52.4082983
            ],
            [
              4.9362089,
              52.4080886
            ],
            [
              4.9368699,
              52.4078958
            ],
            [
              4.9382634,
              52.4075203
            ],
            [
              4.9394948,
              52.4072117
            ],
            [
              4.9399481,
              52.4070945
            ],
            [
              4.9404342,
              52.4069684
            ],
            [
              4.9413939,
              52.406703
            ],
            [
              4.9423533,
              52.4064226
            ],
            [
              4.9430096,
              52.4062223
            ],
            [
              4.9436653,
              52.4060182
            ],
            [
              4.9446656,
              52.4056852
            ],
            [
              4.9455811,
              52.4053591
            ],
            [
              4.9467193,
              52.4049398
            ],
            [
              4.9477556,
              52.4045388
            ],
            [
              4.9485367,
              52.4042104
            ],
            [
              4.9490137,
              52.4040099
            ],
            [
              4.9504022,
              52.4033978
            ],
            [
              4.9516373,
              52.4027991
            ],
            [
              4.9532365,
              52.401962
            ],
            [
              4.9546577,
              52.4011475
            ],
            [
              4.9552028,
              52.4008277
            ],
            [
              4.9557943,
              52.4004784
            ],
            [
              4.9567443,
              52.399839
            ],
            [
              4.9581514,
              52.3988591
            ],
            [
              4.9590503,
              52.3981765
            ],
            [
              4.9599478,
              52.3974348
            ],
            [
              4.9605968,
              52.3968563
            ],
            [
              4.9612406,
              52.3962511
            ],
            [
              4.9622001,
              52.3952724
            ],
            [
              4.9626828,
              52.3947236
            ],
            [
              4.9633754,
              52.3939275
            ],
            [
              4.963472,
              52.3938171
            ],
            [
              4.9637375,
              52.3934851
            ],
            [
              4.9642394,
              52.3929165
            ],
            [
              4.9664951,
              52.390265
            ],
            [
              4.9670304,
              52.3896423
            ],
            [
              4.9682253,
              52.3882114
            ],
            [
              4.9690651,
              52.38721
            ],
            [
              4.9691656,
              52.3870848
            ],
            [
              4.9693108,
              52.3869132
            ],
            [
              4.9699083,
              52.3861689
            ],
            [
              4.9704347,
              52.3854664
            ],
            [
              4.9709274,
              52.3847686
            ],
            [
              4.9713145,
              52.3841643
            ],
            [
              4.9715824,
              52.3837091
            ],
            [
              4.9719617,
              52.3830222
            ],
            [
              4.97207,
              52.3828208
            ],
            [
              4.9726989,
              52.3815216
            ],
            [
              4.9732154,
              52.3801215
            ],
            [
              4.9732984,
              52.3798483
            ],
            [
              4.9734291,
              52.3793869
            ],
            [
              4.9735951,
              52.3787725
            ],
            [
              4.973695,
              52.3783297
            ],
            [
              4.9737828,
              52.3778996
            ],
            [
              4.9738257,
              52.3776552
            ],
            [
              4.9738921,
              52.3772417
            ],
            [
              4.9739625,
              52.3765332
            ],
            [
              4.9740034,
              52.376034
            ],
            [
              4.9740208,
              52.3750109
            ],
            [
              4.9740051,
              52.3744441
            ],
            [
              4.9739926,
              52.3739898
            ],
            [
              4.9739227,
              52.3731194
            ],
            [
              4.9736386,
              52.3716913
            ],
            [
              4.9735338,
              52.3712141
            ],
            [
              4.9734012,
              52.3707329
            ],
            [
              4.9732687,
              52.370295
            ],
            [
              4.9732121,
              52.3701129
            ],
            [
              4.9729876,
              52.3694887
            ],
            [
              4.972732,
              52.368848
            ],
            [
              4.972292,
              52.3678628
            ],
            [
              4.9720124,
              52.3673257
            ],
            [
              4.9712381,
              52.3658304
            ],
            [
              4.970016,
              52.3636203
            ],
            [
              4.9683615,
              52.3606323
            ],
            [
              4.9655643,
              52.3557205
            ],
            [
              4.9646949,
              52.3542633
            ],
            [
              4.9646395,
              52.3541697
            ],
            [
              4.9639498,
              52.3530038
            ],
            [
              4.9636164,
              52.3524733
            ],
            [
              4.9634553,
              52.3522398
            ],
            [
              4.9626912,
              52.3511725
            ],
            [
              4.9619675,
              52.3503132
            ],
            [
              4.9614012,
              52.3496876
            ],
            [
              4.960618,
              52.348885
            ],
            [
              4.9597845,
              52.3480409
            ],
            [
              4.9591411,
              52.347436
            ],
            [
              4.9580482,
              52.3463651
            ],
            [
              4.957256,
              52.3455763
            ],
            [
              4.9564397,
              52.3447292
            ],
            [
              4.955679,
              52.3439288
            ],
            [
              4.9556117,
              52.343858
            ],
            [
              4.9552569,
              52.3434847
            ],
            [
              4.9545066,
              52.3426944
            ],
            [
              4.9541858,
              52.3423395
            ],
            [
              4.9538548,
              52.341983
            ],
            [
              4.9534503,
              52.3415761
            ],
            [
              4.9530041,
              52.341179
            ],
            [
              4.9529213,
              52.3411066
            ],
            [
              4.952346,
              52.3406701
            ],
            [
              4.9517949,
              52.3403063
            ],
            [
              4.9509959,
              52.3398416
            ],
            [
              4.9502717,
              52.3394849
            ],
            [
              4.9496739,
              52.3392211
            ],
            [
              4.9492716,
              52.3390675
            ],
            [
              4.9488719,
              52.3389241
            ],
            [
              4.9484301,
              52.3387768
            ],
            [
              4.9481228,
              52.3386825
            ],
            [
              4.9477282,
              52.338578
            ],
            [
              4.9470287,
              52.3383921
            ],
            [
              4.9463259,
              52.3382116
            ],
            [
              4.9449491,
              52.3378778
            ],
            [
              4.9445075,
              52.3377683
            ],
            [
              4.9440589,
              52.3376696
            ],
            [
              4.9431599,
              52.3374684
            ],
            [
              4.9429038,
              52.3374062
            ],
            [
              4.9425383,
              52.3373144
            ],
            [
              4.94216,
              52.3372153
            ],
            [
              4.9417535,
              52.3370984
            ],
            [
              4.9413739,
              52.3369794
            ],
            [
              4.940597,
              52.3367261
            ],
            [
              4.9403302,
              52.336629
            ],
            [
              4.9401262,
              52.3365565
            ],
            [
              4.9395474,
              52.3363296
            ],
            [
              4.9390646,
              52.3361335
            ],
            [
              4.9385764,
              52.335932
            ],
            [
              4.938273,
              52.33581
            ],
            [
              4.937622,
              52.3355444
            ],
            [
              4.9363859,
              52.3350802
            ],
            [
              4.9361299,
              52.3349883
            ],
            [
              4.935931,
              52.3349175
            ],
            [
              4.9359116,
              52.3349105
            ],
            [
              4.9329479,
              52.3338849
            ],
            [
              4.930706,
              52.3331136
            ],
            [
              4.9267808,
              52.3317682
            ],
            [
              4.9254116,
              52.3312916
            ],
            [
              4.924375,
              52.3309346
            ],
            [
              4.9230704,
              52.3304913
            ],
            [
              4.9212733,
              52.3298733
            ],
            [
              4.9200223,
              52.3294781
            ],
            [
              4.9190188,
              52.3291704
            ],
            [
              4.917975,
              52.3289064
            ],
            [
              4.9170248,
              52.3287275
            ],
            [
              4.9166022,
              52.3286572
            ],
            [
              4.9161523,
              52.3286035
            ],
            [
              4.9151968,
              52.3285182
            ],
            [
              4.9147893,
              52.328494
            ],
            [
              4.9136546,
              52.3284652
            ],
            [
              4.9132546,
              52.3284688
            ],
            [
              4.9127604,
              52.3284836
            ],
            [
              4.9120915,
              52.3285256
            ],
            [
              4.9113432,
              52.3285956
            ],
            [
              4.9108664,
              52.328652
            ],
            [
              4.9103435,
              52.3287323
            ],
            [
              4.90908,
              52.32898
            ],
            [
              4.90842,
              52.32915
            ],
            [
              4.9074448,
              52.3294051
            ],
            [
              4.90649,
              52.32971
            ],
            [
              4.9058783,
              52.3299032
            ],
            [
              4.9046365,
              52.3303776
            ],
            [
              4.9032939,
              52.3309299
            ],
            [
              4.9024546,
              52.3313174
            ],
            [
              4.9017444,
              52.3316676
            ],
            [
              4.9009613,
              52.3320795
            ],
            [
              4.9003559,
              52.3323993
            ],
            [
              4.8976753,
              52.3338266
            ],
            [
              4.8972327,
              52.3340598
            ],
            [
              4.8968742,
              52.3342503
            ],
            [
              4.8965012,
              52.3344524
            ],
            [
              4.8960859,
              52.3346686
            ],
            [
              4.8955714,
              52.3349416
            ],
            [
              4.8940557,
              52.3357495
            ],
            [
              4.893047,
              52.336289
            ],
            [
              4.892017,
              52.3368389
            ],
            [
              4.8908107,
              52.3374788
            ],
            [
              4.88992,
              52.3379486
            ],
            [
              4.8893632,
              52.3382234
            ],
            [
              4.8892036,
              52.3382976
            ],
            [
              4.8889636,
              52.3383935
            ],
            [
              4.888693,
              52.3385128
            ],
            [
              4.8883926,
              52.3386254
            ],
            [
              4.8877991,
              52.3388427
            ],
            [
              4.8869154,
              52.3391042
            ],
            [
              4.8862428,
              52.339269
            ],
            [
              4.8854309,
              52.3394319
            ],
            [
              4.8849004,
              52.3395143
            ],
            [
              4.8844071,
              52.3395785
            ],
            [
              4.8838971,
              52.3396296
            ],
            [
              4.8835031,
              52.3396579
            ],
            [
              4.8829537,
              52.3396867
            ],
            [
              4.8827943,
              52.3396925
            ],
            [
              4.8822052,
              52.3396972
            ],
            [
              4.8812168,
              52.339682
            ],
            [
              4.8791532,
              52.3396332
            ],
            [
              4.8772053,
              52.3395764
            ],
            [
              4.8763843,
              52.3395505
            ],
            [
              4.8739502,
              52.339456
            ],
            [
              4.8712117,
              52.3393323
            ],
            [
              4.869792,
              52.3392682
            ],
            [
              4.8690894,
              52.3392365
            ],
            [
              4.8680905,
              52.3391922
            ],
            [
              4.8662199,
              52.3391069
            ],
            [
              4.8648936,
              52.3390451
            ],
            [
              4.8638949,
              52.3390007
            ],
            [
              4.8622724,
              52.3389263
            ],
            [
              4.8602744,
              52.3388313
            ],
            [
              4.8585583,
              52.3387582
            ],
            [
              4.8581004,
              52.3387371
            ],
            [
              4.8571008,
              52.3386879
            ],
            [
              4.8534737,
              52.3384934
            ],
            [
              4.8531919,
              52.3384772
            ],
            [
              4.8514817,
              52.3383696
            ],
            [
              4.8484561,
              52.3381498
            ],
            [
              4.8482866,
              52.3381383
            ],
            [
              4.8478398,
              52.3381047
            ],
            [
              4.8471142,
              52.338053
            ],
            [
              4.8468623,
              52.3380347
            ],
            [
              4.8465116,
              52.33801
            ],
            [
              4.846106,
              52.3379827
            ],
            [
              4.8458625,
              52.3379707
            ],
            [
              4.8456818,
              52.3379635
            ],
            [
              4.8454993,
              52.3379604
            ],
            [
              4.8447534,
              52.338024
            ],
            [
              4.8444759,
              52.3380538
            ],
            [
              4.8442283,
              52.3380895
            ],
            [
              4.8440478,
              52.3381252
            ],
            [
              4.8439021,
              52.3381592
            ],
            [
              4.8437178,
              52.3382099
            ],
            [
              4.8435216,
              52.3382755
            ],
            [
              4.8432523,
              52.3383833
            ],
            [
              4.8429979,
              52.3385078
            ],
            [
              4.8427462,
              52.3386585
            ],
            [
              4.842606,
              52.3387551
            ],
            [
              4.8423939,
              52.3389331
            ],
            [
              4.8421648,
              52.3392062
            ],
            [
              4.8420022,
              52.3394666
            ],
            [
              4.8419465,
              52.3395952
            ],
            [
              4.8418982,
              52.3397308
            ],
            [
              4.8417182,
              52.3401358
            ],
            [
              4.8415476,
              52.3411081
            ],
            [
              4.8414781,
              52.3415873
            ],
            [
              4.8414177,
              52.3420322
            ],
            [
              4.8413352,
              52.3427457
            ],
            [
              4.8412785,
              52.3432442
            ],
            [
              4.8412516,
              52.3434455
            ],
            [
              4.84116,
              52.3445156
            ],
            [
              4.8411125,
              52.3454469
            ],
            [
              4.841095,
              52.3460918
            ],
            [
              4.841103,
              52.3467516
            ],
            [
              4.8411269,
              52.3470698
            ],
            [
              4.8411767,
              52.347418
            ],
            [
              4.8412692,
              52.3478547
            ],
            [
              4.8413409,
              52.3481134
            ],
            [
              4.8414387,
              52.348396
            ],
            [
              4.8414954,
              52.3485468
            ],
            [
              4.8415559,
              52.3486995
            ],
            [
              4.8417986,
              52.3492169
            ],
            [
              4.8421406,
              52.3499244
            ],
            [
              4.8422729,
              52.350229
            ],
            [
              4.8424171,
              52.3505961
            ],
            [
              4.8425086,
              52.3508652
            ],
            [
              4.8426196,
              52.3513074
            ],
            [
              4.8427011,
              52.3517866
            ],
            [
              4.8427251,
              52.3519979
            ],
            [
              4.8427397,
              52.3522571
            ],
            [
              4.8427487,
              52.3524996
            ],
            [
              4.8427179,
              52.3538447
            ],
            [
              4.8427012,
              52.3544849
            ],
            [
              4.8426554,
              52.3557969
            ],
            [
              4.8426356,
              52.356476
            ],
            [
              4.8426186,
              52.3574692
            ],
            [
              4.8425805,
              52.3584528
            ],
            [
              4.8425671,
              52.3592036
            ],
            [
              4.842552,
              52.3595331
            ],
            [
              4.8425212,
              52.3606322
            ],
            [
              4.8425007,
              52.3612219
            ],
            [
              4.8424818,
              52.3618171
            ],
            [
              4.8424667,
              52.362383
            ],
            [
              4.8424506,
              52.3628539
            ],
            [
              4.842445,
              52.3630654
            ],
            [
              4.8424418,
              52.3631755
            ],
            [
              4.8424213,
              52.3639309
            ],
            [
              4.8424114,
              52.364358
            ],
            [
              4.8423647,
              52.3658425
            ],
            [
              4.8423633,
              52.365956
            ],
            [
              4.8423157,
              52.3677533
            ],
            [
              4.842269,
              52.369119
            ],
            [
              4.8422501,
              52.3697703
            ],
            [
              4.8422178,
              52.3707434
            ],
            [
              4.8422034,
              52.3712562
            ],
            [
              4.842213,
              52.371762
            ],
            [
              4.8422326,
              52.3722117
            ],
            [
              4.8422941,
              52.3726646
            ],
            [
              4.8423784,
              52.3731663
            ],
            [
              4.8424517,
              52.3734965
            ],
            [
              4.8424862,
              52.3736441
            ],
            [
              4.8425684,
              52.3739332
            ],
            [
              4.8426644,
              52.3742396
            ],
            [
              4.8428492,
              52.3747562
            ],
            [
              4.8429969,
              52.3751101
            ],
            [
              4.8431934,
              52.3755906
            ],
            [
              4.8433851,
              52.376025
            ],
            [
              4.84357,
              52.3764506
            ],
            [
              4.8440032,
              52.3774867
            ],
            [
              4.8443187,
              52.3782492
            ],
            [
              4.8444691,
              52.3786225
            ],
            [
              4.8445864,
              52.3789505
            ],
            [
              4.8447025,
              52.3793393
            ],
            [
              4.8447596,
              52.3795461
            ],
            [
              4.8448481,
              52.3799881
            ],
            [
              4.8448639,
              52.3801492
            ],
            [
              4.8449002,
              52.3807255
            ],
            [
              4.8448137,
              52.38259
            ],
            [
              4.8447129,
              52.3844097
            ],
            [
              4.8446676,
              52.3851707
            ],
            [
              4.844626,
              52.385945
            ],
            [
              4.8446063,
              52.3863139
            ],
            [
              4.8445889,
              52.3866059
            ],
            [
              4.8445237,
              52.3877614
            ],
            [
              4.8444973,
              52.3882577
            ],
            [
              4.8444862,
              52.3884967
            ],
            [
              4.8444693,
              52.3887585
            ],
            [
              4.8444153,
              52.3895755
            ],
            [
              4.8443801,
              52.3903527
            ],
            [
              4.844324,
              52.3914289
            ],
            [
              4.8442976,
              52.3919265
            ],
            [
              4.8442844,
              52.3921904
            ],
            [
              4.8442935,
              52.3928304
            ],
            [
              4.8443185,
              52.3934079
            ],
            [
              4.8443755,
              52.3939646
            ],
            [
              4.8444729,
              52.3944581
            ],
            [
              4.8445513,
              52.3947512
            ],
            [
              4.8446434,
              52.3950661
            ],
            [
              4.8446466,
              52.3950765
            ],
            [
              4.8447153,
              52.3952725
            ],
            [
              4.8447667,
              52.3954087
            ],
            [
              4.8448294,
              52.3955624
            ],
            [
              4.8449982,
              52.3959165
            ],
            [
              4.8452057,
              52.3963024
            ],
            [
              4.845401,
              52.3966221
            ],
            [
              4.8456215,
              52.3969543
            ],
            [
              4.8459034,
              52.3973194
            ],
            [
              4.8461431,
              52.3976106
            ],
            [
              4.8464038,
              52.3978983
            ],
            [
              4.8467088,
              52.3981893
            ],
            [
              4.8469236,
              52.3984176
            ],
            [
              4.8471997,
              52.3986584
            ],
            [
              4.8475959,
              52.3989981
            ],
            [
              4.848765,
              52.3999688
            ],
            [
              4.8498554,
              52.4008608
            ],
            [
              4.850277,
              52.4012215
            ],
            [
              4.8517085,
              52.4024632
            ],
            [
              4.8519318,
              52.4026652
            ],
            [
              4.8530039,
              52.4036057
            ],
            [
              4.8538383,
              52.4043257
            ],
            [
              4.8540436,
              52.4045025
            ],
            [
              4.8547342,
              52.4050902
            ],
            [
              4.8551476,
              52.4054404
            ],
            [
              4.8555018,
              52.4057387
            ],
            [
              4.8556616,
              52.4058752
            ],
            [
              4.8561056,
              52.4062517
            ],
            [
              4.8569036,
              52.4069045
            ],
            [
              4.8573161,
              52.407232
            ],
            [
              4.8578027,
              52.4076135
            ],
            [
              4.8579201,
              52.4077047
            ],
            [
              4.8581133,
              52.407854
            ],
            [
              4.8583847,
              52.4080644
            ],
            [
              4.8585191,
              52.4081712
            ],
            [
              4.8585881,
              52.4082223
            ],
            [
              4.8587912,
              52.4083733
            ],
            [
              4.8589319,
              52.4084881
            ],
            [
              4.8593703,
              52.4088337
            ],
            [
              4.8599126,
              52.4092917
            ],
            [
              4.8607741,
              52.4100844
            ],
            [
              4.8612643,
              52.4105776
            ],
            [
              4.861459,
              52.4107802
            ],
            [
              4.8671655,
              52.4167006
            ],
            [
              4.8673433,
              52.4168954
            ],
            [
              4.8674459,
              52.4170089
            ],
            [
              4.8681771,
              52.4177709
            ],
            [
              4.86887,
              52.4184911
            ],
            [
              4.8691773,
              52.418797
            ],
            [
              4.869503,
              52.4191035
            ],
            [
              4.8698723,
              52.4194205
            ],
            [
              4.8701408,
              52.4196334
            ],
            [
              4.8705651,
              52.4199377
            ],
            [
              4.8706877,
              52.4200224
            ],
            [
              4.8709151,
              52.4201675
            ],
            [
              4.8710695,
              52.4202621
            ],
            [
              4.8713666,
              52.4204419
            ],
            [
              4.8720142,
              52.4206948
            ],
            [
              4.8725758,
              52.420939
            ],
            [
              4.8728845,
              52.4210597
            ],
            [
              4.8732234,
              52.4211885
            ],
            [
              4.8736095,
              52.4213267
            ],
            [
              4.873973,
              52.4214497
            ],
            [
              4.8742966,
              52.42156
            ],
            [
              4.8747076,
              52.4217064
            ],
            [
              4.8750057,
              52.4218269
            ],
            [
              4.8752899,
              52.4219531
            ],
            [
              4.8754539,
              52.42203
            ],
            [
              4.8756982,
              52.4221581
            ],
            [
              4.8759307,
              52.4222858
            ],
            [
              4.8762445,
              52.42248
            ],
            [
              4.8764827,
              52.4226262
            ],
            [
              4.876744,
              52.4227806
            ],
            [
              4.8769409,
              52.42289
            ],
            [
              4.8771475,
              52.4229956
            ],
            [
              4.8773923,
              52.423109
            ],
            [
              4.8776019,
              52.4232
            ],
            [
              4.8778689,
              52.4233123
            ],
            [
              4.8781054,
              52.4233955
            ],
            [
              4.8783603,
              52.4234786
            ],
            [
              4.8788162,
              52.4236123
            ],
            [
              4.8793305,
              52.4237518
            ],
            [
              4.8799816,
              52.4239153
            ],
            [
              4.8804858,
              52.4240343
            ],
            [
              4.8809827,
              52.4241415
            ],
            [
              4.8814836,
              52.4242461
            ],
            [
              4.8818175,
              52.4243116
            ],
            [
              4.8821716,
              52.4243766
            ],
            [
              4.8826068,
              52.4244526
            ],
            [
              4.8830433,
              52.4245244
            ],
            [
              4.8835033,
              52.4245945
            ],
            [
              4.8839227,
              52.4246549
            ],
            [
              4.884663,
              52.42473
            ],
            [
              4.8856039,
              52.4248288
            ],
            [
              4.8865205,
              52.4249036
            ],
            [
              4.8870605,
              52.4249371
            ],
            [
              4.8880361,
              52.4249817
            ],
            [
              4.8885212,
              52.4249941
            ],
            [
              4.889446,
              52.4250056
            ],
            [
              4.8904449,
              52.4249974
            ],
            [
              4.8914585,
              52.4249543
            ],
            [
              4.892471,
              52.4248982
            ],
            [
              4.8931687,
              52.4248395
            ],
            [
              4.8944872,
              52.4246979
            ],
            [
              4.8955341,
              52.4245619
            ],
            [
              4.896407,
              52.4244138
            ],
            [
              4.8968773,
              52.4243274
            ],
            [
              4.898236,
              52.4240526
            ],
            [
              4.8987087,
              52.4239458
            ],
            [
              4.8992702,
              52.4238058
            ],
            [
              4.899986,
              52.4236132
            ]
          ]
        ]
      }
    }
  ]
}