{"type":"FeatureCollection","features":[{"type":"Feature","geometry":{"type":"MultiPolygon","coordinates":[[[[4.964591,52.3216867],[4.9646145,52.3216611],[4.9646406,52.3216701],[4.9646171,52.3216957],[4.964591,52.3216867]]]]},"properties":{"id":"w282294463","kind":"facade","height":6,"colour":"#765345"}},{"type":"Feature","geometry":{"type":"MultiPolygon","coordinates":[[[[4.9647219,52.3248791],[4.964743,52.324856],[4.9647752,52.324867],[4.9647541,52.3248901],[4.9647219,52.3248791]]]]},"properties":{"id":"w282294826","kind":"facade","height":9,"colour":"#765345"}},{"type":"Feature","geometry":{"type":"MultiPolygon","coordinates":[[[[4.9594341,52.3243448],[4.9594345,52.3243429],[4.9594352,52.3243409],[4.9594362,52.3243393],[4.9594377,52.3243374],[4.9595934,52.3241675],[4.9596664,52.3240878],[4.9596832,52.3240695],[4.9596845,52.3240684],[4.9596867,52.324067],[4.9596892,52.3240661],[4.9596918,52.3240655],[4.9596943,52.3240652],[4.9596968,52.324065],[4.9596993,52.3240652],[4.9597016,52.3240656],[4.9597037,52.3240662],[4.9599742,52.3241593],[4.9599758,52.32416],[4.9599774,52.324161],[4.9599785,52.324162],[4.9599795,52.3241631],[4.9599801,52.3241642],[4.9599806,52.3241654],[4.9599809,52.3241666],[4.9599808,52.3241679],[4.9599803,52.3241693],[4.9599796,52.3241706],[4.9599784,52.3241722],[4.9598267,52.3243381],[4.9598067,52.3243313],[4.959959,52.3241648],[4.9598576,52.3241301],[4.9598314,52.3241211],[4.959804,52.3241118],[4.9597021,52.324077],[4.9594553,52.3243467],[4.9594486,52.324354],[4.959435,52.3243493],[4.9594346,52.3243485],[4.9594341,52.3243467],[4.9594341,52.3243448]]]]},"properties":{"id":"w1388560103","kind":"facade","height":9,"colour":"#765345"}},{"type":"Feature","geometry":{"type":"MultiPolygon","coordinates":[[[[4.9632088,52.3249693],[4.9632173,52.3249601],[4.9632204,52.3249612],[4.9632318,52.3249488],[4.9633124,52.3249764],[4.963301,52.3249888],[4.9632925,52.324998],[4.9632119,52.3249704],[4.9632088,52.3249693]]]]},"properties":{"id":"w1412702187","kind":"facade","height":9,"colour":"#8a7668"}},{"type":"Feature","geometry":{"type":"Polygon","coordinates":[[[4.96463919,52.321671636],[4.964636135,52.321674963999996],[4.964633753102126,52.321673627546055],[4.964636808102125,52.32167029954606],[4.96463919,52.321671636]]]},"properties":{"id":"w282294463","kind":"window","base":3.65,"height":5.35,"colour":"#203944"}},{"type":"Feature","geometry":{"type":"Polygon","coordinates":[[[4.964633315,52.321678036],[4.96463026,52.321681364],[4.964627878102125,52.32168002754606],[4.964630933102126,52.32167669954606],[4.964633315,52.321678036]]]},"properties":{"id":"w282294463","kind":"window","base":3.65,"height":5.35,"colour":"#203944"}},{"type":"Feature","geometry":{"type":"Polygon","coordinates":[[[4.96462744,52.321684436],[4.964624385,52.321687763999996],[4.964622003102125,52.321686427546055],[4.964625058102126,52.32168309954606],[4.96462744,52.321684436]]]},"properties":{"id":"w282294463","kind":"window","base":3.65,"height":5.35,"colour":"#203944"}},{"type":"Feature","geometry":{"type":"Polygon","coordinates":[[[4.964621565,52.321690836],[4.96461851,52.321694164],[4.964616128102126,52.32169282754606],[4.964619183102125,52.32168949954606],[4.964621565,52.321690836]]]},"properties":{"id":"w282294463","kind":"window","base":3.65,"height":5.35,"colour":"#203944"}},{"type":"Feature","geometry":{"type":"Polygon","coordinates":[[[4.96463778,52.321673172],[4.964635586666667,52.32167556133333],[4.964633204768792,52.32167422487939],[4.964635398102126,52.321671835546056],[4.96463778,52.321673172]]]},"properties":{"id":"w282294463","kind":"door","base":0.05,"height":2.35,"colour":"#d9d2bf"}},{"type":"Feature","geometry":{"type":"Polygon","coordinates":[[[4.964629946666666,52.32168170533333],[4.964627753333334,52.321684094666665],[4.964625371435459,52.321682758212724],[4.964627564768792,52.32168036887939],[4.964629946666666,52.32168170533333]]]},"properties":{"id":"w282294463","kind":"door","base":0.05,"height":2.35,"colour":"#d9d2bf"}},{"type":"Feature","geometry":{"type":"Polygon","coordinates":[[[4.964622113333333,52.32169023866667],[4.96461992,52.321692628],[4.964617538102125,52.32169129154606],[4.964619731435459,52.32168890221273],[4.964622113333333,52.32169023866667]]]},"properties":{"id":"w282294463","kind":"door","base":0.05,"height":2.35,"colour":"#d9d2bf"}},{"type":"Feature","geometry":{"type":"Polygon","coordinates":[[[4.9647229128,52.3248779912],[4.9647251072,52.3248755888],[4.964727494672824,52.32487692164768],[4.964725300272825,52.32487932404768],[4.9647229128,52.3248779912]]]},"properties":{"id":"w282294826","kind":"window","base":3.65,"height":5.35,"colour":"#203944"}},{"type":"Feature","geometry":{"type":"Polygon","coordinates":[[[4.9647271328,52.3248733712],[4.9647293272,52.3248709688],[4.9647317146728245,52.32487230164768],[4.964729520272825,52.32487470404768],[4.9647271328,52.3248733712]]]},"properties":{"id":"w282294826","kind":"window","base":3.65,"height":5.35,"colour":"#203944"}},{"type":"Feature","geometry":{"type":"Polygon","coordinates":[[[4.9647313528,52.3248687512],[4.9647335472,52.32486634879999],[4.964735934672825,52.324867681647675],[4.964733740272825,52.32487008404768],[4.9647313528,52.3248687512]]]},"properties":{"id":"w282294826","kind":"window","base":3.65,"height":5.35,"colour":"#203944"}},{"type":"Feature","geometry":{"type":"Polygon","coordinates":[[[4.9647355728,52.324864131199995],[4.9647377672,52.324861728799995],[4.964740154672825,52.324863061647676],[4.964737960272825,52.324865464047676],[4.9647355728,52.324864131199995]]]},"properties":{"id":"w282294826","kind":"window","base":3.65,"height":5.35,"colour":"#203944"}},{"type":"Feature","geometry":{"type":"Polygon","coordinates":[[[4.9647397928000006,52.324859511199996],[4.9647419872,52.324857108799996],[4.964744374672825,52.32485844164768],[4.964742180272825,52.32486084404768],[4.9647397928000006,52.324859511199996]]]},"properties":{"id":"w282294826","kind":"window","base":3.65,"height":5.35,"colour":"#203944"}},{"type":"Feature","geometry":{"type":"Polygon","coordinates":[[[4.9647229128,52.3248779912],[4.9647251072,52.3248755888],[4.964727494672824,52.32487692164768],[4.964725300272825,52.32487932404768],[4.9647229128,52.3248779912]]]},"properties":{"id":"w282294826","kind":"window","base":6.65,"height":8.35,"colour":"#203944"}},{"type":"Feature","geometry":{"type":"Polygon","coordinates":[[[4.9647271328,52.3248733712],[4.9647293272,52.3248709688],[4.9647317146728245,52.32487230164768],[4.964729520272825,52.32487470404768],[4.9647271328,52.3248733712]]]},"properties":{"id":"w282294826","kind":"window","base":6.65,"height":8.35,"colour":"#203944"}},{"type":"Feature","geometry":{"type":"Polygon","coordinates":[[[4.9647313528,52.3248687512],[4.9647335472,52.32486634879999],[4.964735934672825,52.324867681647675],[4.964733740272825,52.32487008404768],[4.9647313528,52.3248687512]]]},"properties":{"id":"w282294826","kind":"window","base":6.65,"height":8.35,"colour":"#203944"}},{"type":"Feature","geometry":{"type":"Polygon","coordinates":[[[4.9647355728,52.324864131199995],[4.9647377672,52.324861728799995],[4.964740154672825,52.324863061647676],[4.964737960272825,52.324865464047676],[4.9647355728,52.324864131199995]]]},"properties":{"id":"w282294826","kind":"window","base":6.65,"height":8.35,"colour":"#203944"}},{"type":"Feature","geometry":{"type":"Polygon","coordinates":[[[4.9647397928000006,52.324859511199996],[4.9647419872,52.324857108799996],[4.964744374672825,52.32485844164768],[4.964742180272825,52.32486084404768],[4.9647397928000006,52.324859511199996]]]},"properties":{"id":"w282294826","kind":"window","base":6.65,"height":8.35,"colour":"#203944"}},{"type":"Feature","geometry":{"type":"Polygon","coordinates":[[[4.964724432,52.324876327999995],[4.964726401333333,52.324874171999994],[4.964728788806158,52.324875504847675],[4.9647268194728245,52.324877660847676],[4.964724432,52.324876327999995]]]},"properties":{"id":"w282294826","kind":"door","base":0.05,"height":2.35,"colour":"#d9d2bf"}},{"type":"Feature","geometry":{"type":"Polygon","coordinates":[[[4.964731465333333,52.324868628],[4.964733434666667,52.324866472],[4.964735822139492,52.32486780484768],[4.964733852806158,52.32486996084768],[4.964731465333333,52.324868628]]]},"properties":{"id":"w282294826","kind":"door","base":0.05,"height":2.35,"colour":"#d9d2bf"}},{"type":"Feature","geometry":{"type":"Polygon","coordinates":[[[4.964738498666667,52.324860928],[4.9647404680000005,52.324858772],[4.964742855472825,52.32486010484768],[4.9647408861394915,52.32486226084768],[4.964738498666667,52.324860928]]]},"properties":{"id":"w282294826","kind":"door","base":0.05,"height":2.35,"colour":"#d9d2bf"}},{"type":"Feature","geometry":{"type":"Polygon","coordinates":[[[4.959690253600001,52.3240899456],[4.959664586400001,52.324117994400005],[4.959662200949914,52.32411666022478],[4.959687868149914,52.32408861142478],[4.959690253600001,52.3240899456]]]},"properties":{"id":"w1388560103","kind":"window","base":3.65,"height":5.35,"colour":"#203944"}},{"type":"Feature","geometry":{"type":"Polygon","coordinates":[[[4.9596408936000005,52.3241438856],[4.9596152264,52.3241719344],[4.959612840949914,52.324170600224775],[4.959638508149914,52.32414255142478],[4.9596408936000005,52.3241438856]]]},"properties":{"id":"w1388560103","kind":"window","base":3.65,"height":5.35,"colour":"#203944"}},{"type":"Feature","geometry":{"type":"Polygon","coordinates":[[[4.9595915336,52.3241978256],[4.9595658664,52.3242258744],[4.959563480949914,52.324224540224776],[4.959589148149914,52.32419649142478],[4.9595915336,52.3241978256]]]},"properties":{"id":"w1388560103","kind":"window","base":3.65,"height":5.35,"colour":"#203944"}},{"type":"Feature","geometry":{"type":"Polygon","coordinates":[[[4.9595421736,52.3242517656],[4.9595165064,52.3242798144],[4.959514120949914,52.32427848022478],[4.959539788149914,52.32425043142478],[4.9595421736,52.3242517656]]]},"properties":{"id":"w1388560103","kind":"window","base":3.65,"height":5.35,"colour":"#203944"}},{"type":"Feature","geometry":{"type":"Polygon","coordinates":[[[4.9594928136,52.3243057056],[4.9594671464,52.3243337544],[4.959464760949913,52.32433242022478],[4.9594904281499135,52.32430437142477],[4.9594928136,52.3243057056]]]},"properties":{"id":"w1388560103","kind":"window","base":3.65,"height":5.35,"colour":"#203944"}},{"type":"Feature","geometry":{"type":"Polygon","coordinates":[[[4.959690253600001,52.3240899456],[4.959664586400001,52.324117994400005],[4.959662200949914,52.32411666022478],[4.959687868149914,52.32408861142478],[4.959690253600001,52.3240899456]]]},"properties":{"id":"w1388560103","kind":"window","base":6.65,"height":8.35,"colour":"#203944"}},{"type":"Feature","geometry":{"type":"Polygon","coordinates":[[[4.9596408936000005,52.3241438856],[4.9596152264,52.3241719344],[4.959612840949914,52.324170600224775],[4.959638508149914,52.32414255142478],[4.9596408936000005,52.3241438856]]]},"properties":{"id":"w1388560103","kind":"window","base":6.65,"height":8.35,"colour":"#203944"}},{"type":"Feature","geometry":{"type":"Polygon","coordinates":[[[4.9595915336,52.3241978256],[4.9595658664,52.3242258744],[4.959563480949914,52.324224540224776],[4.959589148149914,52.32419649142478],[4.9595915336,52.3241978256]]]},"properties":{"id":"w1388560103","kind":"window","base":6.65,"height":8.35,"colour":"#203944"}},{"type":"Feature","geometry":{"type":"Polygon","coordinates":[[[4.9595421736,52.3242517656],[4.9595165064,52.3242798144],[4.959514120949914,52.32427848022478],[4.959539788149914,52.32425043142478],[4.9595421736,52.3242517656]]]},"properties":{"id":"w1388560103","kind":"window","base":6.65,"height":8.35,"colour":"#203944"}},{"type":"Feature","geometry":{"type":"Polygon","coordinates":[[[4.9594928136,52.3243057056],[4.9594671464,52.3243337544],[4.959464760949913,52.32433242022478],[4.9594904281499135,52.32430437142477],[4.9594928136,52.3243057056]]]},"properties":{"id":"w1388560103","kind":"window","base":6.65,"height":8.35,"colour":"#203944"}},{"type":"Feature","geometry":{"type":"Polygon","coordinates":[[[4.959672484,52.324109364],[4.959649449333334,52.324134536],[4.9596470638832475,52.32413320182478],[4.959670098549914,52.32410802982478],[4.959672484,52.324109364]]]},"properties":{"id":"w1388560103","kind":"door","base":0.05,"height":2.35,"colour":"#d9d2bf"}},{"type":"Feature","geometry":{"type":"Polygon","coordinates":[[[4.959590217333334,52.324199264],[4.9595671826666665,52.324224436],[4.95956479721658,52.32422310182478],[4.959587831883248,52.32419792982478],[4.959590217333334,52.324199264]]]},"properties":{"id":"w1388560103","kind":"door","base":0.05,"height":2.35,"colour":"#d9d2bf"}},{"type":"Feature","geometry":{"type":"Polygon","coordinates":[[[4.959507950666667,52.324289164],[4.959484916,52.324314336],[4.959482530549914,52.32431300182478],[4.95950556521658,52.324287829824776],[4.959507950666667,52.324289164]]]},"properties":{"id":"w1388560103","kind":"door","base":0.05,"height":2.35,"colour":"#d9d2bf"}},{"type":"Feature","geometry":{"type":"Polygon","coordinates":[[[4.963282828,52.324994688000004],[4.9632618719999995,52.324987512],[4.963262919552596,52.32498564229774],[4.963283875552596,52.324992818297744],[4.963282828,52.324994688000004]]]},"properties":{"id":"w1412702187","kind":"window","base":3.65,"height":5.35,"colour":"#203944"}},{"type":"Feature","geometry":{"type":"Polygon","coordinates":[[[4.963242528,52.324980888],[4.963221572,52.324973711999995],[4.963222619552597,52.324971842297735],[4.963243575552597,52.32497901829774],[4.963242528,52.324980888]]]},"properties":{"id":"w1412702187","kind":"window","base":3.65,"height":5.35,"colour":"#203944"}},{"type":"Feature","geometry":{"type":"Polygon","coordinates":[[[4.963282828,52.324994688000004],[4.9632618719999995,52.324987512],[4.963262919552596,52.32498564229774],[4.963283875552596,52.324992818297744],[4.963282828,52.324994688000004]]]},"properties":{"id":"w1412702187","kind":"window","base":6.65,"height":8.35,"colour":"#203944"}},{"type":"Feature","geometry":{"type":"Polygon","coordinates":[[[4.963242528,52.324980888],[4.963221572,52.324973711999995],[4.963222619552597,52.324971842297735],[4.963243575552597,52.32497901829774],[4.963242528,52.324980888]]]},"properties":{"id":"w1412702187","kind":"window","base":6.65,"height":8.35,"colour":"#203944"}},{"type":"Feature","geometry":{"type":"Polygon","coordinates":[[[4.963277992,52.324993032],[4.963266708,52.324989168],[4.963267755552597,52.32498729829774],[4.963279039552597,52.32499116229774],[4.963277992,52.324993032]]]},"properties":{"id":"w1412702187","kind":"door","base":0.05,"height":2.35,"colour":"#d9d2bf"}},{"type":"Feature","geometry":{"type":"Polygon","coordinates":[[[4.963237692,52.324979232],[4.963226408,52.324975368],[4.963227455552596,52.32497349829774],[4.9632387395525965,52.32497736229774],[4.963237692,52.324979232]]]},"properties":{"id":"w1412702187","kind":"door","base":0.05,"height":2.35,"colour":"#d9d2bf"}}]}
